[{"OBJECT_NAME":"TOMORROW-S1","OBJECT_ID":"2024-149M","EPOCH":"2026-03-09T17:23:34.533600","MEAN_MOTION":15.31198363,"ECCENTRICITY":0.00018188,"INCLINATION":97.3791,"RA_OF_ASC_NODE":149.6044,"ARG_OF_PERICENTER":207.204,"MEAN_ANOMALY":152.9106,"EPHEMERIS_TYPE":0,"CLASSIFICATION_TYPE":"U","NORAD_CAT_ID":60479,"ELEMENT_SET_NO":999,"REV_AT_EPOCH":8686,"BSTAR":0.0002885603,"MEAN_MOTION_DOT":8.62e-5,"MEAN_MOTION_DDOT":0},{"OBJECT_NAME":"STARLINK-35394","OBJECT_ID":"2025-232U","EPOCH":"2026-03-09T12:40:25.318848","MEAN_MOTION":15.30199264,"ECCENTRICITY":0.000127,"INCLINATION":53.1578,"RA_OF_ASC_NODE":104.458,"ARG_OF_PERICENTER":93.356,"MEAN_ANOMALY":266.7586,"EPHEMERIS_TYPE":0,"CLASSIFICATION_TYPE":"U","NORAD_CAT_ID":66023,"ELEMENT_SET_NO":999,"REV_AT_EPOCH":2341,"BSTAR":0.0011406435,"MEAN_MOTION_DOT":0.00033575,"MEAN_MOTION_DDOT":0}]
